{
  "type": "FeatureCollection",
  "features": [
    {
      "type": "Feature",
      "properties": {
        "norad_id": 33924,
        "name": "COSMOS 2251 DEB",
        "group": "cosmos-2251-debris",
        "lat": -4.455325672075998,
        "lon": 82.10602608486143,
        "alt_km": 1170.1178117367635,
        "timestamp": "2025-12-18T13:51:50.078998+00:00",
        "meta_object_name": "COSMOS 2251 DEB",
        "meta_object_id": "1993-036ED",
        "meta_epoch": "2025-12-18T04:01:13.804032",
        "meta_mean_motion": 13.50232743,
        "meta_eccentricity": 0.04039375,
        "meta_inclination": 73.9135,
        "meta_ra_of_asc_node": 261.4767,
        "meta_arg_of_pericenter": 295.9733,
        "meta_mean_anomaly": 60.0285,
        "meta_ephemeris_type": 0,
        "meta_classification_type": "U",
        "meta_norad_cat_id": 33924,
        "meta_element_set_no": 999,
        "meta_rev_at_epoch": 82812,
        "meta_bstar": 0.0004843714,
        "meta_mean_motion_dot": 4.89e-06,
        "meta_mean_motion_ddot": 0,
        "tle_line1": "1 33924U 93036ED  25352.16752088  .00000489  00000+0  48437-3 0  9995",
        "tle_line2": "2 33924  73.9135 261.4767 0403937 295.9733  60.0285 13.50232743828120"
      },
      "geometry": {
        "type": "Point",
        "coordinates": [
          82.10602608486143,
          -4.455325672075998
        ]
      }
    },
    {
      "type": "Feature",
      "properties": {
        "norad_id": 33928,
        "name": "COSMOS 2251 DEB",
        "group": "cosmos-2251-debris",
        "lat": -16.45537237482177,
        "lon": 36.688652484922244,
        "alt_km": 695.1618550488165,
        "timestamp": "2025-12-18T13:51:50.079009+00:00",
        "meta_object_name": "COSMOS 2251 DEB",
        "meta_object_id": "1993-036EH",
        "meta_epoch": "2025-12-18T03:59:21.328512",
        "meta_mean_motion": 14.47414285,
        "meta_eccentricity": 0.00617283,
        "meta_inclination": 73.9257,
        "meta_ra_of_asc_node": 42.3485,
        "meta_arg_of_pericenter": 335.3271,
        "meta_mean_anomaly": 24.4937,
        "meta_ephemeris_type": 0,
        "meta_classification_type": "U",
        "meta_norad_cat_id": 33928,
        "meta_element_set_no": 999,
        "meta_rev_at_epoch": 88723,
        "meta_bstar": 0.00019337118,
        "meta_mean_motion_dot": 6.97e-06,
        "meta_mean_motion_ddot": 0,
        "tle_line1": "1 33928U 93036EH  25352.16621908  .00000697  00000+0  19337-3 0  9993",
        "tle_line2": "2 33928  73.9257  42.3485 0061728 335.3271  24.4937 14.47414285887231"
      },
      "geometry": {
        "type": "Point",
        "coordinates": [
          36.688652484922244,
          -16.45537237482177
        ]
      }
    },
    {
      "type": "Feature",
      "properties": {
        "norad_id": 33932,
        "name": "COSMOS 2251 DEB",
        "group": "cosmos-2251-debris",
        "lat": -57.86710752407604,
        "lon": -81.96626729632105,
        "alt_km": 765.4856710620052,
        "timestamp": "2025-12-18T13:51:50.079019+00:00",
        "meta_object_name": "COSMOS 2251 DEB",
        "meta_object_id": "1993-036EM",
        "meta_epoch": "2025-12-18T05:48:19.346976",
        "meta_mean_motion": 14.38774001,
        "meta_eccentricity": 0.00356013,
        "meta_inclination": 74.034,
        "meta_ra_of_asc_node": 305.7693,
        "meta_arg_of_pericenter": 20.6059,
        "meta_mean_anomaly": 339.6522,
        "meta_ephemeris_type": 0,
        "meta_classification_type": "U",
        "meta_norad_cat_id": 33932,
        "meta_element_set_no": 999,
        "meta_rev_at_epoch": 88077,
        "meta_bstar": 0.00038736144,
        "meta_mean_motion_dot": 1.173e-05,
        "meta_mean_motion_ddot": 0,
        "tle_line1": "1 33932U 93036EM  25352.24189059  .00001173  00000+0  38736-3 0  9997",
        "tle_line2": "2 33932  74.0340 305.7693 0035601  20.6059 339.6522 14.38774001880775"
      },
      "geometry": {
        "type": "Point",
        "coordinates": [
          -81.96626729632105,
          -57.86710752407604
        ]
      }
    },
    {
      "type": "Feature",
      "properties": {
        "norad_id": 33933,
        "name": "COSMOS 2251 DEB",
        "group": "cosmos-2251-debris",
        "lat": 34.41005618059547,
        "lon": 60.76424637535094,
        "alt_km": 729.785448156852,
        "timestamp": "2025-12-18T13:51:50.079030+00:00",
        "meta_object_name": "COSMOS 2251 DEB",
        "meta_object_id": "1993-036EN",
        "meta_epoch": "2025-12-18T05:19:26.199264",
        "meta_mean_motion": 14.33497311,
        "meta_eccentricity": 0.00708553,
        "meta_inclination": 74.0892,
        "meta_ra_of_asc_node": 50.1453,
        "meta_arg_of_pericenter": 56.9172,
        "meta_mean_anomaly": 303.8756,
        "meta_ephemeris_type": 0,
        "meta_classification_type": "U",
        "meta_norad_cat_id": 33933,
        "meta_element_set_no": 999,
        "meta_rev_at_epoch": 87863,
        "meta_bstar": 0.00021490861,
        "meta_mean_motion_dot": 5.86e-06,
        "meta_mean_motion_ddot": 0,
        "tle_line1": "1 33933U 93036EN  25352.22183101  .00000586  00000+0  21491-3 0  9995",
        "tle_line2": "2 33933  74.0892  50.1453 0070855  56.9172 303.8756 14.33497311878636"
      },
      "geometry": {
        "type": "Point",
        "coordinates": [
          60.76424637535094,
          34.41005618059547
        ]
      }
    },
    {
      "type": "Feature",
      "properties": {
        "norad_id": 33934,
        "name": "COSMOS 2251 DEB",
        "group": "cosmos-2251-debris",
        "lat": -27.401081947745883,
        "lon": 80.91712436441223,
        "alt_km": 706.5218886704997,
        "timestamp": "2025-12-18T13:51:50.079040+00:00",
        "meta_object_name": "COSMOS 2251 DEB",
        "meta_object_id": "1993-036EP",
        "meta_epoch": "2025-12-17T16:36:13.965120",
        "meta_mean_motion": 14.59150764,
        "meta_eccentricity": 0.00154944,
        "meta_inclination": 74.0384,
        "meta_ra_of_asc_node": 91.1363,
        "meta_arg_of_pericenter": 215.0285,
        "meta_mean_anomaly": 144.9863,
        "meta_ephemeris_type": 0,
        "meta_classification_type": "U",
        "meta_norad_cat_id": 33934,
        "meta_element_set_no": 999,
        "meta_rev_at_epoch": 88811,
        "meta_bstar": 0.0006938547,
        "meta_mean_motion_dot": 3.246e-05,
        "meta_mean_motion_ddot": 0,
        "tle_line1": "1 33934U 93036EP  25351.69182830  .00003246  00000+0  69385-3 0  9994",
        "tle_line2": "2 33934  74.0384  91.1363 0015494 215.0285 144.9863 14.59150764888112"
      },
      "geometry": {
        "type": "Point",
        "coordinates": [
          80.91712436441223,
          -27.401081947745883
        ]
      }
    },
    {
      "type": "Feature",
      "properties": {
        "norad_id": 33936,
        "name": "COSMOS 2251 DEB",
        "group": "cosmos-2251-debris",
        "lat": -68.93231373389365,
        "lon": -21.743265773478907,
        "alt_km": 703.5323347590211,
        "timestamp": "2025-12-18T13:51:50.079050+00:00",
        "meta_object_name": "COSMOS 2251 DEB",
        "meta_object_id": "1993-036ER",
        "meta_epoch": "2025-12-18T04:20:53.591712",
        "meta_mean_motion": 14.60304667,
        "meta_eccentricity": 0.00271857,
        "meta_inclination": 74.0183,
        "meta_ra_of_asc_node": 27.0842,
        "meta_arg_of_pericenter": 181.3024,
        "meta_mean_anomaly": 178.8076,
        "meta_ephemeris_type": 0,
        "meta_classification_type": "U",
        "meta_norad_cat_id": 33936,
        "meta_element_set_no": 999,
        "meta_rev_at_epoch": 88969,
        "meta_bstar": 0.00048829389,
        "meta_mean_motion_dot": 2.341e-05,
        "meta_mean_motion_ddot": 0,
        "tle_line1": "1 33936U 93036ER  25352.18117583  .00002341  00000+0  48829-3 0  9999",
        "tle_line2": "2 33936  74.0183  27.0842 0027185 181.3024 178.8076 14.60304667889698"
      },
      "geometry": {
        "type": "Point",
        "coordinates": [
          -21.743265773478907,
          -68.93231373389365
        ]
      }
    },
    {
      "type": "Feature",
      "properties": {
        "norad_id": 33938,
        "name": "COSMOS 2251 DEB",
        "group": "cosmos-2251-debris",
        "lat": -32.47566235610639,
        "lon": 26.76871632688347,
        "alt_km": 736.5702854339088,
        "timestamp": "2025-12-18T13:51:50.079060+00:00",
        "meta_object_name": "COSMOS 2251 DEB",
        "meta_object_id": "1993-036ET",
        "meta_epoch": "2025-12-18T06:46:41.179584",
        "meta_mean_motion": 14.46809848,
        "meta_eccentricity": 0.00168331,
        "meta_inclination": 74.0438,
        "meta_ra_of_asc_node": 196.8278,
        "meta_arg_of_pericenter": 278.4785,
        "meta_mean_anomaly": 198.397,
        "meta_ephemeris_type": 0,
        "meta_classification_type": "U",
        "meta_norad_cat_id": 33938,
        "meta_element_set_no": 999,
        "meta_rev_at_epoch": 88480,
        "meta_bstar": 0.00034249899,
        "meta_mean_motion_dot": 1.216e-05,
        "meta_mean_motion_ddot": 0,
        "tle_line1": "1 33938U 93036ET  25352.28242106  .00001216  00000+0  34250-3 0  9995",
        "tle_line2": "2 33938  74.0438 196.8278 0016833 278.4785 198.3970 14.46809848884804"
      },
      "geometry": {
        "type": "Point",
        "coordinates": [
          26.76871632688347,
          -32.47566235610639
        ]
      }
    }
  ]
}